OBJECT_NAME,OBJECT_ID,EPOCH,MEAN_MOTION,ECCENTRICITY,INCLINATION,RA_OF_ASC_NODE,ARG_OF_PERICENTER,MEAN_ANOMALY,EPHEMERIS_TYPE,CLASSIFICATION_TYPE,NORAD_CAT_ID,ELEMENT_SET_NO,REV_AT_EPOCH,BSTAR,MEAN_MOTION_DOT,MEAN_MOTION_DDOT
FENGYUN 3D,2017-072A,2026-06-12T06:49:49.276704,14.19738696,.00026392,99.0119,137.6182,69.7098,290.4361,0,U,43010,999,44429,.1251665E-3,.219E-5,0
NOAA 20 (JPSS-1),2017-073A,2026-06-12T04:59:53.579328,14.19510942,.00003327,98.7773,102.7151,57.6170,302.5038,0,U,43013,999,44376,.46916699E-4,.55E-6,0
GOES 17,2018-022A,2026-06-12T05:55:50.419776,1.00270638,.00004559,0.9240,85.7987,26.2240,148.0277,0,U,43226,999,3037,0,-.167E-5,0
SENTINEL-3B,2018-039A,2026-06-11T10:32:13.596000,14.26740095,.0000809,98.6248,230.0537,80.8461,279.2811,0,U,43437,999,42330,.49397E-4,.76E-6,0
FENGYUN 2H,2018-050A,2026-06-12T01:36:01.164960,1.00270361,.00018273,3.0167,79.1390,130.9601,153.7455,0,U,43491,999,2938,0,-.116E-5,0
METOP-C,2018-087A,2026-06-12T05:04:17.552064,14.21510861,.00015853,98.6645,222.9057,135.1068,225.0238,0,U,43689,999,39412,.63294917E-4,.95E-6,0
GEO-KOMPSAT-2A,2018-100A,2026-06-12T06:57:53.220384,1.00273027,.00018524,0.0548,131.2791,314.0824,47.9925,0,U,43823,999,2758,0,-.328E-5,0
METEOR-M2 2,2019-038A,2026-06-12T06:10:21.506304,14.24364813,.00022172,98.9141,150.4696,55.9175,304.2213,0,U,44387,999,36059,.66716885E-4,.108E-5,0
ARKTIKA-M 1,2021-016A,2026-06-09T12:22:37.726752,2.00625436,.7285674,63.2417,58.7595,269.8905,14.6803,0,U,47719,999,3863,0,-.149E-5,0
FENGYUN 3E,2021-062A,2026-06-12T06:27:22.470912,14.19905212,.00027929,98.7494,166.7316,93.5108,266.6388,0,U,49008,999,25588,.21128636E-3,.405E-5,0
GOES 18,2022-021A,2026-06-12T06:19:54.962112,1.00271719,.00004432,0.0456,147.5675,14.6457,56.3598,0,U,51850,999,654,0,.112E-5,0
NOAA 21 (JPSS-2),2022-150A,2026-06-12T05:47:31.960896,14.19564675,.00013835,98.7061,102.1136,165.0955,195.0262,0,U,54234,999,18584,.37347671E-4,.35E-6,0
METEOSAT-12 (MTG-I1),2022-170C,2026-06-12T06:21:11.178144,1.00271774,.00032069,0.7326,22.0862,72.1781,261.2060,0,U,54743,999,1292,0,.7E-7,0
TIANMU-1 03,2023-039A,2026-06-12T06:20:33.664128,15.47147012,.00042359,97.5227,337.0419,111.2848,248.8854,0,U,55973,999,18007,.29348806E-3,.1481E-3,0
TIANMU-1 04,2023-039B,2026-06-12T06:08:08.143584,15.47742804,.00048026,97.5165,336.1862,108.4435,251.7337,0,U,55974,999,18008,.3227155E-3,.16639E-3,0
TIANMU-1 05,2023-039C,2026-06-12T05:52:31.507104,15.47074557,.00038533,97.5208,336.6383,125.9699,234.1908,0,U,55975,999,18005,.3160713E-3,.15918E-3,0
TIANMU-1 06,2023-039D,2026-06-12T06:12:33.869376,15.47647145,.00042008,97.5218,337.2835,123.0252,237.1402,0,U,55976,999,18008,.29846481E-3,.15327E-3,0
FENGYUN 3G,2023-055A,2026-06-12T06:42:13.480416,15.52414121,.00068983,49.9936,11.3061,275.0498,84.9682,0,U,56232,999,17924,.3848632E-3,.236E-3,0
METEOR-M2 3,2023-091A,2026-06-12T06:00:32.152032,14.24046354,.0004077,98.6091,218.3295,168.2377,191.8898,0,U,57166,999,15381,.15162947E-4,-.8E-7,0
TIANMU-1 07,2023-101A,2026-06-12T04:39:47.320416,15.29749753,.00038268,97.2600,213.9772,131.9034,228.2533,0,U,57399,999,16088,.19973205E-3,.5682E-4,0
TIANMU-1 08,2023-101B,2026-06-12T05:25:58.032768,15.29754581,.00054077,97.2589,213.7798,127.1269,233.0467,0,U,57400,999,16088,.19949339E-3,.5677E-4,0
TIANMU-1 09,2023-101C,2026-06-12T05:02:13.455744,15.29784669,.00042601,97.2546,213.1820,137.9945,222.1624,0,U,57401,999,16088,.21681445E-3,.6182E-4,0
TIANMU-1 10,2023-101D,2026-06-12T05:49:41.123712,15.29755850,.00058725,97.2626,214.2596,139.0580,221.1103,0,U,57402,999,16088,.21093775E-3,.6008E-4,0
FENGYUN 3F,2023-111A,2026-06-12T06:04:22.897920,14.19938299,.00015932,98.6841,233.3535,96.8364,263.2994,0,U,57490,999,14816,.37161624E-4,.36E-6,0
ARKTIKA-M 2,2023-198A,2026-06-09T18:48:45.592992,2.00606537,.69004015,63.2205,155.1874,267.4353,18.7899,0,U,58584,999,1817,0,.212E-5,0
TIANMU-1 11,2023-205A,2026-06-12T08:02:46.343904,15.26947007,.00095367,97.3448,184.9682,33.1373,327.0461,0,U,58645,999,13678,.22536263E-3,.5897E-4,0
TIANMU-1 12,2023-205B,2026-06-12T07:19:55.784928,15.26909959,.00073538,97.3437,184.6956,20.4211,339.7321,0,U,58646,999,13676,.22441534E-3,.5862E-4,0
TIANMU-1 13,2023-205C,2026-06-12T08:05:35.954880,15.26764041,.00064878,97.3464,184.9986,0.2891,359.8350,0,U,58647,999,13676,.22960441E-3,.5972E-4,0
TIANMU-1 14,2023-205D,2026-06-12T07:44:30.004800,15.26809082,.00074819,97.3399,184.1699,3.8142,356.3153,0,U,58648,999,13676,.23192709E-3,.6042E-4,0
TIANMU-1 19,2023-208A,2026-06-12T06:08:47.952384,15.31501724,.00041962,97.4496,279.5310,349.8263,10.2893,0,U,58660,999,13657,.28477042E-3,.8587E-4,0
