FENGYUN 3D              
1 43010U 17072A   26163.28459811  .00000219  00000+0  12517-3 0  9991
2 43010  99.0119 137.6182 0002639  69.7098 290.4361 14.19738696444298
NOAA 20 (JPSS-1)        
1 43013U 17073A   26163.20825902  .00000055  00000+0  46917-4 0  9995
2 43013  98.7773 102.7151 0000332  57.6170 302.5038 14.19510942443766
GOES 17                 
1 43226U 18022A   26163.24711134 -.00000167  00000+0  00000+0 0  9994
2 43226   0.9240  85.7987 0000455  26.2240 148.0277  1.00270638 30377
SENTINEL-3B             
1 43437U 18039A   26162.43904625  .00000076  00000+0  49397-4 0  9990
2 43437  98.6248 230.0537 0000809  80.8461 279.2811 14.26740095423304
FENGYUN 2H              
1 43491U 18050A   26163.06668015 -.00000116  00000+0  00000+0 0  9992
2 43491   3.0167  79.1390 0001827 130.9601 153.7455  1.00270361 29389
METOP-C                 
1 43689U 18087A   26163.21131426  .00000095  00000+0  63295-4 0  9994
2 43689  98.6645 222.9057 0001585 135.1068 225.0238 14.21510861394120
GEO-KOMPSAT-2A          
1 43823U 18100A   26163.29019931 -.00000328  00000+0  00000+0 0  9994
2 43823   0.0548 131.2791 0001852 314.0824  47.9925  1.00273027 27581
METEOR-M2 2             
1 44387U 19038A   26163.25719336  .00000108  00000+0  66717-4 0  9990
2 44387  98.9141 150.4696 0002217  55.9175 304.2213 14.24364813360599
ARKTIKA-M 1             
1 47719U 21016A   26160.51571443 -.00000149  00000+0  00000+0 0  9996
2 47719  63.2417  58.7595 7285674 269.8905  14.6803  2.00625436 38630
FENGYUN 3E              
1 49008U 21062A   26163.26901008  .00000405  00000+0  21129-3 0  9992
2 49008  98.7494 166.7316 0002792  93.5108 266.6388 14.19905212255881
GOES 18                 
1 51850U 22021A   26163.26383058  .00000112  00000+0  00000+0 0  9991
2 51850   0.0456 147.5675 0000443  14.6457  56.3598  1.00271719  6548
NOAA 21 (JPSS-2)        
1 54234U 22150A   26163.24134214  .00000035  00000+0  37348-4 0  9993
2 54234  98.7061 102.1136 0001383 165.0955 195.0262 14.19564675185840
METEOSAT-12 (MTG-I1)    
1 54743U 22170C   26163.26471271  .00000007  00000+0  00000+0 0  9998
2 54743   0.7326  22.0862 0003206  72.1781 261.2060  1.00271774 12920
TIANMU-1 03             
1 55973U 23039A   26163.26427852  .00014810  00000+0  29349-3 0  9993
2 55973  97.5227 337.0419 0004235 111.2848 248.8854 15.47147012180076
TIANMU-1 04             
1 55974U 23039B   26163.25564981  .00016639  00000+0  32272-3 0  9998
2 55974  97.5165 336.1862 0004802 108.4435 251.7337 15.47742804180080
TIANMU-1 05             
1 55975U 23039C   26163.24480911  .00015918  00000+0  31607-3 0  9998
2 55975  97.5208 336.6383 0003853 125.9699 234.1908 15.47074557180052
TIANMU-1 06             
1 55976U 23039D   26163.25872534  .00015327  00000+0  29846-3 0  9992
2 55976  97.5218 337.2835 0004200 123.0252 237.1402 15.47647145180088
FENGYUN 3G              
1 56232U 23055A   26163.27932269  .00023600  00000+0  38486-3 0  9993
2 56232  49.9936  11.3061 0006898 275.0498  84.9682 15.52414121179244
METEOR-M2 3             
1 57166U 23091A   26163.25037213 -.00000008  00000+0  15163-4 0  9999
2 57166  98.6091 218.3295 0004077 168.2377 191.8898 14.24046354153817
TIANMU-1 07             
1 57399U 23101A   26163.19429769  .00005682  00000+0  19973-3 0  9997
2 57399  97.2600 213.9772 0003826 131.9034 228.2533 15.29749753160880
TIANMU-1 08             
1 57400U 23101B   26163.22636612  .00005677  00000+0  19949-3 0  9998
2 57400  97.2589 213.7798 0005407 127.1269 233.0467 15.29754581160884
TIANMU-1 09             
1 57401U 23101C   26163.20987796  .00006182  00000+0  21681-3 0  9997
2 57401  97.2546 213.1820 0004260 137.9945 222.1624 15.29784669160888
TIANMU-1 10             
1 57402U 23101D   26163.24283708  .00006008  00000+0  21094-3 0  9999
2 57402  97.2626 214.2596 0005872 139.0580 221.1103 15.29755850160889
FENGYUN 3F              
1 57490U 23111A   26163.25304280  .00000036  00000+0  37162-4 0  9996
2 57490  98.6841 233.3535 0001593  96.8364 263.2994 14.19938299148161
ARKTIKA-M 2             
1 58584U 23198A   26160.78386103  .00000212  00000+0  00000+0 0  9997
2 58584  63.2205 155.1874 6900401 267.4353  18.7899  2.00606537 18179
TIANMU-1 11             
1 58645U 23205A   26163.33525861  .00005897  00000+0  22536-3 0  9990
2 58645  97.3448 184.9682 0009536  33.1373 327.0461 15.26947007136785
TIANMU-1 12             
1 58646U 23205B   26163.30550677  .00005862  00000+0  22442-3 0  9999
2 58646  97.3437 184.6956 0007353  20.4211 339.7321 15.26909959136767
TIANMU-1 13             
1 58647U 23205C   26163.33722170  .00005972  00000+0  22960-3 0  9999
2 58647  97.3464 184.9986 0006487   0.2891 359.8350 15.26764041136767
TIANMU-1 14             
1 58648U 23205D   26163.32256950  .00006042  00000+0  23193-3 0  9995
2 58648  97.3399 184.1699 0007481   3.8142 356.3153 15.26809082136769
TIANMU-1 19             
1 58660U 23208A   26163.25611056  .00008587  00000+0  28477-3 0  9992
2 58660  97.4496 279.5310 0004196 349.8263  10.2893 15.31501724136572
